{
  "type": "FeatureCollection",
  "features": [
    {
      "type": "Feature",
      "properties": {
        "norad_id": 66933,
        "name": "STARLINK-36157",
        "group": "last-30-days",
        "lat": -4.360006368056164,
        "lon": -17.040861747425176,
        "alt_km": 391.16822558554486,
        "timestamp": "2025-12-25T14:48:23.571452+00:00",
        "meta_object_name": "STARLINK-36157",
        "meta_object_id": "2025-286J",
        "meta_epoch": "2025-12-25T06:00:04.000320",
        "meta_mean_motion": 15.60929571,
        "meta_eccentricity": 0.00014828,
        "meta_inclination": 53.1597,
        "meta_ra_of_asc_node": 348.0195,
        "meta_arg_of_pericenter": 76.2643,
        "meta_mean_anomaly": 16.6049,
        "meta_ephemeris_type": 0,
        "meta_classification_type": "U",
        "meta_norad_cat_id": 66933,
        "meta_element_set_no": 999,
        "meta_rev_at_epoch": 400,
        "meta_bstar": -0.026857385,
        "meta_mean_motion_dot": -0.02011127,
        "meta_mean_motion_ddot": 0,
        "tle_line1": "1 66933U 25286J   25359.25004630 -.02011127  00000+0 -26857-1 0  9998",
        "tle_line2": "2 66933  53.1597 348.0195 0001482  76.2643  16.6049 15.60929571  4007"
      },
      "geometry": {
        "type": "Point",
        "coordinates": [
          -17.040861747425176,
          -4.360006368056164
        ]
      }
    },
    {
      "type": "Feature",
      "properties": {
        "norad_id": 66934,
        "name": "STARLINK-36153",
        "group": "last-30-days",
        "lat": -2.825135797056757,
        "lon": -15.88793888328665,
        "alt_km": 390.9750032637794,
        "timestamp": "2025-12-25T14:48:23.571461+00:00",
        "meta_object_name": "STARLINK-36153",
        "meta_object_id": "2025-286K",
        "meta_epoch": "2025-12-25T06:00:04.000320",
        "meta_mean_motion": 15.60924144,
        "meta_eccentricity": 0.00012901,
        "meta_inclination": 53.1594,
        "meta_ra_of_asc_node": 348.0158,
        "meta_arg_of_pericenter": 77.3555,
        "meta_mean_anomaly": 17.435,
        "meta_ephemeris_type": 0,
        "meta_classification_type": "U",
        "meta_norad_cat_id": 66934,
        "meta_element_set_no": 999,
        "meta_rev_at_epoch": 400,
        "meta_bstar": -0.026761642,
        "meta_mean_motion_dot": -0.02004332,
        "meta_mean_motion_ddot": 0,
        "tle_line1": "1 66934U 25286K   25359.25004630 -.02004332  00000+0 -26762-1 0  9994",
        "tle_line2": "2 66934  53.1594 348.0158 0001290  77.3555  17.4350 15.60924144  4000"
      },
      "geometry": {
        "type": "Point",
        "coordinates": [
          -15.88793888328665,
          -2.825135797056757
        ]
      }
    },
    {
      "type": "Feature",
      "properties": {
        "norad_id": 66935,
        "name": "STARLINK-36127",
        "group": "last-30-days",
        "lat": -1.2917074643862845,
        "lon": -14.741072556372291,
        "alt_km": 390.6727730446337,
        "timestamp": "2025-12-25T14:48:23.571470+00:00",
        "meta_object_name": "STARLINK-36127",
        "meta_object_id": "2025-286L",
        "meta_epoch": "2025-12-25T06:00:04.000320",
        "meta_mean_motion": 15.60930677,
        "meta_eccentricity": 0.00012916,
        "meta_inclination": 53.1595,
        "meta_ra_of_asc_node": 348.011,
        "meta_arg_of_pericenter": 71.2399,
        "meta_mean_anomaly": 25.4629,
        "meta_ephemeris_type": 0,
        "meta_classification_type": "U",
        "meta_norad_cat_id": 66935,
        "meta_element_set_no": 999,
        "meta_rev_at_epoch": 400,
        "meta_bstar": -0.026859767,
        "meta_mean_motion_dot": -0.02011216,
        "meta_mean_motion_ddot": 0,
        "tle_line1": "1 66935U 25286L   25359.25004630 -.02011216  00000+0 -26860-1 0  9993",
        "tle_line2": "2 66935  53.1595 348.0110 0001291  71.2399  25.4629 15.60930677  4006"
      },
      "geometry": {
        "type": "Point",
        "coordinates": [
          -14.741072556372291,
          -1.2917074643862845
        ]
      }
    },
    {
      "type": "Feature",
      "properties": {
        "norad_id": 66936,
        "name": "STARLINK-36160",
        "group": "last-30-days",
        "lat": 0.24077144183184074,
        "lon": -13.59529777761406,
        "alt_km": 390.4762381471719,
        "timestamp": "2025-12-25T14:48:23.571480+00:00",
        "meta_object_name": "STARLINK-36160",
        "meta_object_id": "2025-286M",
        "meta_epoch": "2025-12-25T06:00:04.000320",
        "meta_mean_motion": 15.60928559,
        "meta_eccentricity": 0.00014035,
        "meta_inclination": 53.1595,
        "meta_ra_of_asc_node": 348.0076,
        "meta_arg_of_pericenter": 74.8947,
        "meta_mean_anomaly": 23.7266,
        "meta_ephemeris_type": 0,
        "meta_classification_type": "U",
        "meta_norad_cat_id": 66936,
        "meta_element_set_no": 999,
        "meta_rev_at_epoch": 400,
        "meta_bstar": -0.026839907,
        "meta_mean_motion_dot": -0.02009852,
        "meta_mean_motion_ddot": 0,
        "tle_line1": "1 66936U 25286M   25359.25004630 -.02009852  00000+0 -26840-1 0  9995",
        "tle_line2": "2 66936  53.1595 348.0076 0001403  74.8947  23.7266 15.60928559  4005"
      },
      "geometry": {
        "type": "Point",
        "coordinates": [
          -13.59529777761406,
          0.24077144183184074
        ]
      }
    },
    {
      "type": "Feature",
      "properties": {
        "norad_id": 66937,
        "name": "STARLINK-36165",
        "group": "last-30-days",
        "lat": 1.775889485061864,
        "lon": -12.448214562993915,
        "alt_km": 390.2931730051332,
        "timestamp": "2025-12-25T14:48:23.571490+00:00",
        "meta_object_name": "STARLINK-36165",
        "meta_object_id": "2025-286N",
        "meta_epoch": "2025-12-25T06:00:04.000320",
        "meta_mean_motion": 15.60929031,
        "meta_eccentricity": 0.00013155,
        "meta_inclination": 53.1596,
        "meta_ra_of_asc_node": 348.0032,
        "meta_arg_of_pericenter": 77.4839,
        "meta_mean_anomaly": 23.0552,
        "meta_ephemeris_type": 0,
        "meta_classification_type": "U",
        "meta_norad_cat_id": 66937,
        "meta_element_set_no": 999,
        "meta_rev_at_epoch": 400,
        "meta_bstar": -0.026862683,
        "meta_mean_motion_dot": -0.02011312,
        "meta_mean_motion_ddot": 0,
        "tle_line1": "1 66937U 25286N   25359.25004630 -.02011312  00000+0 -26863-1 0  9995",
        "tle_line2": "2 66937  53.1596 348.0032 0001315  77.4839  23.0552 15.60929031  4007"
      },
      "geometry": {
        "type": "Point",
        "coordinates": [
          -12.448214562993915,
          1.775889485061864
        ]
      }
    },
    {
      "type": "Feature",
      "properties": {
        "norad_id": 66938,
        "name": "STARLINK-36155",
        "group": "last-30-days",
        "lat": 3.30852535022515,
        "lon": -11.300760510567915,
        "alt_km": 389.9471711945498,
        "timestamp": "2025-12-25T14:48:23.571499+00:00",
        "meta_object_name": "STARLINK-36155",
        "meta_object_id": "2025-286P",
        "meta_epoch": "2025-12-25T06:00:04.000320",
        "meta_mean_motion": 15.60928124,
        "meta_eccentricity": 0.00013897,
        "meta_inclination": 53.1598,
        "meta_ra_of_asc_node": 347.9986,
        "meta_arg_of_pericenter": 70.7471,
        "meta_mean_anomaly": 31.7078,
        "meta_ephemeris_type": 0,
        "meta_classification_type": "U",
        "meta_norad_cat_id": 66938,
        "meta_element_set_no": 999,
        "meta_rev_at_epoch": 400,
        "meta_bstar": -0.026817728,
        "meta_mean_motion_dot": -0.02008357,
        "meta_mean_motion_ddot": 0,
        "tle_line1": "1 66938U 25286P   25359.25004630 -.02008357  00000+0 -26818-1 0  9991",
        "tle_line2": "2 66938  53.1598 347.9986 0001389  70.7471  31.7078 15.60928124  4006"
      },
      "geometry": {
        "type": "Point",
        "coordinates": [
          -11.300760510567915,
          3.30852535022515
        ]
      }
    },
    {
      "type": "Feature",
      "properties": {
        "norad_id": 66939,
        "name": "STARLINK-36154",
        "group": "last-30-days",
        "lat": 6.370489674704289,
        "lon": -8.991239276180655,
        "alt_km": 389.5622290909296,
        "timestamp": "2025-12-25T14:48:23.571509+00:00",
        "meta_object_name": "STARLINK-36154",
        "meta_object_id": "2025-286Q",
        "meta_epoch": "2025-12-25T06:00:04.000320",
        "meta_mean_motion": 15.60929274,
        "meta_eccentricity": 0.00013783,
        "meta_inclination": 53.1597,
        "meta_ra_of_asc_node": 347.9906,
        "meta_arg_of_pericenter": 78.0802,
        "meta_mean_anomaly": 28.2084,
        "meta_ephemeris_type": 0,
        "meta_classification_type": "U",
        "meta_norad_cat_id": 66939,
        "meta_element_set_no": 999,
        "meta_rev_at_epoch": 400,
        "meta_bstar": -0.026853376,
        "meta_mean_motion_dot": -0.02010765,
        "meta_mean_motion_ddot": 0,
        "tle_line1": "1 66939U 25286Q   25359.25004630 -.02010765  00000+0 -26853-1 0  9997",
        "tle_line2": "2 66939  53.1597 347.9906 0001378  78.0802  28.2084 15.60929274  4000"
      },
      "geometry": {
        "type": "Point",
        "coordinates": [
          -8.991239276180655,
          6.370489674704289
        ]
      }
    }
  ]
}